{
  "type": "FeatureCollection",
  "features": [
    {
      "type": "Feature",
      "properties": {
        "norad_id": 37846,
        "name": "GSAT0101 (GALILEO-PFM)",
        "group": "gnss",
        "lat": -45.716788062532764,
        "lon": -151.8770511828571,
        "alt_km": 23225.98869738523,
        "timestamp": "2025-12-26T04:40:06.029080+00:00",
        "meta_object_name": "GSAT0101 (GALILEO-PFM)",
        "meta_object_id": "2011-060A",
        "meta_epoch": "2025-12-24T15:10:54.850656",
        "meta_mean_motion": 1.70475643,
        "meta_eccentricity": 0.00032614,
        "meta_inclination": 57.05,
        "meta_ra_of_asc_node": 346.4975,
        "meta_arg_of_pericenter": 321.0017,
        "meta_mean_anomaly": 38.9828,
        "meta_ephemeris_type": 0,
        "meta_classification_type": "U",
        "meta_norad_cat_id": 37846,
        "meta_element_set_no": 999,
        "meta_rev_at_epoch": 8814,
        "meta_bstar": 0,
        "meta_mean_motion_dot": -6.1e-07,
        "meta_mean_motion_ddot": 0,
        "tle_line1": "1 37846U 11060A   25358.63257929 -.00000061  00000+0  00000+0 0  9998",
        "tle_line2": "2 37846  57.0500 346.4975 0003261 321.0017  38.9828  1.70475643 88147"
      },
      "geometry": {
        "type": "Point",
        "coordinates": [
          -151.8770511828571,
          -45.716788062532764
        ]
      }
    },
    {
      "type": "Feature",
      "properties": {
        "norad_id": 37847,
        "name": "GSAT0102 (GALILEO-FM2)",
        "group": "gnss",
        "lat": -54.48543470231291,
        "lon": -78.87860807798764,
        "alt_km": 23214.486144731778,
        "timestamp": "2025-12-26T04:40:06.029092+00:00",
        "meta_object_name": "GSAT0102 (GALILEO-FM2)",
        "meta_object_id": "2011-060B",
        "meta_epoch": "2025-12-22T11:58:40.586304",
        "meta_mean_motion": 1.70475957,
        "meta_eccentricity": 0.00051595,
        "meta_inclination": 57.0512,
        "meta_ra_of_asc_node": 346.5558,
        "meta_arg_of_pericenter": 313.0615,
        "meta_mean_anomaly": 223.0229,
        "meta_ephemeris_type": 0,
        "meta_classification_type": "U",
        "meta_norad_cat_id": 37847,
        "meta_element_set_no": 999,
        "meta_rev_at_epoch": 8811,
        "meta_bstar": 0,
        "meta_mean_motion_dot": -6.5e-07,
        "meta_mean_motion_ddot": 0,
        "tle_line1": "1 37847U 11060B   25356.49908086 -.00000065  00000+0  00000+0 0  9992",
        "tle_line2": "2 37847  57.0512 346.5558 0005159 313.0615 223.0229  1.70475957 88119"
      },
      "geometry": {
        "type": "Point",
        "coordinates": [
          -78.87860807798764,
          -54.48543470231291
        ]
      }
    },
    {
      "type": "Feature",
      "properties": {
        "norad_id": 37867,
        "name": "COSMOS 2476 (744)",
        "group": "gnss",
        "lat": -58.495423982042446,
        "lon": 29.758200736220097,
        "alt_km": 19100.15210983426,
        "timestamp": "2025-12-26T04:40:06.029104+00:00",
        "meta_object_name": "COSMOS 2476 (744)",
        "meta_object_id": "2011-064A",
        "meta_epoch": "2025-12-24T09:57:47.072160",
        "meta_mean_motion": 2.13103925,
        "meta_eccentricity": 0.00245084,
        "meta_inclination": 65.1679,
        "meta_ra_of_asc_node": 78.7766,
        "meta_arg_of_pericenter": 235.0068,
        "meta_mean_anomaly": 129.7601,
        "meta_ephemeris_type": 0,
        "meta_classification_type": "U",
        "meta_norad_cat_id": 37867,
        "meta_element_set_no": 999,
        "meta_rev_at_epoch": 11004,
        "meta_bstar": 0,
        "meta_mean_motion_dot": 1e-08,
        "meta_mean_motion_ddot": 0,
        "tle_line1": "1 37867U 11064A   25358.41512815  .00000001  00000+0  00000+0 0  9992",
        "tle_line2": "2 37867  65.1679  78.7766 0024508 235.0068 129.7601  2.13103925110049"
      },
      "geometry": {
        "type": "Point",
        "coordinates": [
          29.758200736220097,
          -58.495423982042446
        ]
      }
    },
    {
      "type": "Feature",
      "properties": {
        "norad_id": 37868,
        "name": "COSMOS 2477 (745)",
        "group": "gnss",
        "lat": 58.21702875365889,
        "lon": -149.4367821973066,
        "alt_km": 19154.823389974095,
        "timestamp": "2025-12-26T04:40:06.029116+00:00",
        "meta_object_name": "COSMOS 2477 (745)",
        "meta_object_id": "2011-064B",
        "meta_epoch": "2025-12-24T15:22:57.950400",
        "meta_mean_motion": 2.13103036,
        "meta_eccentricity": 0.00215718,
        "meta_inclination": 65.1748,
        "meta_ra_of_asc_node": 78.8466,
        "meta_arg_of_pericenter": 235.4688,
        "meta_mean_anomaly": 123.4303,
        "meta_ephemeris_type": 0,
        "meta_classification_type": "U",
        "meta_norad_cat_id": 37868,
        "meta_element_set_no": 999,
        "meta_rev_at_epoch": 11003,
        "meta_bstar": 0,
        "meta_mean_motion_dot": 1e-08,
        "meta_mean_motion_ddot": 0,
        "tle_line1": "1 37868U 11064B   25358.64094850  .00000001  00000+0  00000+0 0  9992",
        "tle_line2": "2 37868  65.1748  78.8466 0021571 235.4688 123.4303  2.13103036110036"
      },
      "geometry": {
        "type": "Point",
        "coordinates": [
          -149.4367821973066,
          58.21702875365889
        ]
      }
    },
    {
      "type": "Feature",
      "properties": {
        "norad_id": 37869,
        "name": "COSMOS 2475 (743)",
        "group": "gnss",
        "lat": 56.42592528064653,
        "lon": 122.94572155391427,
        "alt_km": 19191.902235033325,
        "timestamp": "2025-12-26T04:40:06.029128+00:00",
        "meta_object_name": "COSMOS 2475 (743)",
        "meta_object_id": "2011-064C",
        "meta_epoch": "2025-12-25T05:57:40.330080",
        "meta_mean_motion": 2.1310165,
        "meta_eccentricity": 0.00267734,
        "meta_inclination": 65.1818,
        "meta_ra_of_asc_node": 78.8463,
        "meta_arg_of_pericenter": 249.2296,
        "meta_mean_anomaly": 171.5586,
        "meta_ephemeris_type": 0,
        "meta_classification_type": "U",
        "meta_norad_cat_id": 37869,
        "meta_element_set_no": 999,
        "meta_rev_at_epoch": 11006,
        "meta_bstar": 0,
        "meta_mean_motion_dot": -1e-08,
        "meta_mean_motion_ddot": 0,
        "tle_line1": "1 37869U 11064C   25359.24838345 -.00000001  00000+0  00000+0 0  9996",
        "tle_line2": "2 37869  65.1818  78.8463 0026773 249.2296 171.5586  2.13101650110069"
      },
      "geometry": {
        "type": "Point",
        "coordinates": [
          122.94572155391427,
          56.42592528064653
        ]
      }
    },
    {
      "type": "Feature",
      "properties": {
        "norad_id": 37948,
        "name": "BEIDOU-2 IGSO-5 (C10)",
        "group": "gnss",
        "lat": -10.380627308948549,
        "lon": -95.7898535313164,
        "alt_km": 36038.44913007659,
        "timestamp": "2025-12-26T04:40:06.029148+00:00",
        "meta_object_name": "BEIDOU-2 IGSO-5 (C10)",
        "meta_object_id": "2011-073A",
        "meta_epoch": "2025-12-25T17:46:48.300384",
        "meta_mean_motion": 1.00288091,
        "meta_eccentricity": 0.01096686,
        "meta_inclination": 47.9959,
        "meta_ra_of_asc_node": 273.6993,
        "meta_arg_of_pericenter": 222.1113,
        "meta_mean_anomaly": 319.0848,
        "meta_ephemeris_type": 0,
        "meta_classification_type": "U",
        "meta_norad_cat_id": 37948,
        "meta_element_set_no": 999,
        "meta_rev_at_epoch": 5139,
        "meta_bstar": 0,
        "meta_mean_motion_dot": -1.42e-06,
        "meta_mean_motion_ddot": 0,
        "tle_line1": "1 37948U 11073A   25359.74083681 -.00000142  00000+0  00000+0 0  9990",
        "tle_line2": "2 37948  47.9959 273.6993 0109668 222.1113 319.0848  1.00288091 51397"
      },
      "geometry": {
        "type": "Point",
        "coordinates": [
          -95.7898535313164,
          -10.380627308948549
        ]
      }
    },
    {
      "type": "Feature",
      "properties": {
        "norad_id": 37951,
        "name": "LUCH 5A (SDCM/PRN 140)",
        "group": "gnss",
        "lat": -8.066656146559371,
        "lon": -28.113366846735275,
        "alt_km": 35777.778782455236,
        "timestamp": "2025-12-26T04:40:06.029161+00:00",
        "meta_object_name": "LUCH 5A (SDCM/PRN 140)",
        "meta_object_id": "2011-074B",
        "meta_epoch": "2025-12-25T22:25:21.670176",
        "meta_mean_motion": 1.00268892,
        "meta_eccentricity": 0.00052968,
        "meta_inclination": 8.3113,
        "meta_ra_of_asc_node": 76.3899,
        "meta_arg_of_pericenter": 192.5336,
        "meta_mean_anomaly": 329.1169,
        "meta_ephemeris_type": 0,
        "meta_classification_type": "U",
        "meta_norad_cat_id": 37951,
        "meta_element_set_no": 999,
        "meta_rev_at_epoch": 5131,
        "meta_bstar": 0,
        "meta_mean_motion_dot": -3.1e-07,
        "meta_mean_motion_ddot": 0,
        "tle_line1": "1 37951U 11074B   25359.93427859 -.00000031  00000+0  00000+0 0  9992",
        "tle_line2": "2 37951   8.3113  76.3899 0005296 192.5336 329.1169  1.00268892 51313"
      },
      "geometry": {
        "type": "Point",
        "coordinates": [
          -28.113366846735275,
          -8.066656146559371
        ]
      }
    }
  ]
}